[{"OBJECT_NAME":"STARLINK-32123","OBJECT_ID":"2024-132G","EPOCH":"2026-03-09T22:03:48.955104","MEAN_MOTION":15.30174058,"ECCENTRICITY":0.00013242,"INCLINATION":53.162,"RA_OF_ASC_NODE":38.7293,"ARG_OF_PERICENTER":93.9693,"MEAN_ANOMALY":266.1459,"EPHEMERIS_TYPE":0,"CLASSIFICATION_TYPE":"U","NORAD_CAT_ID":60284,"ELEMENT_SET_NO":999,"REV_AT_EPOCH":9177,"BSTAR":-7.5109e-7,"MEAN_MOTION_DOT":-3.81e-6,"MEAN_MOTION_DDOT":0},{"OBJECT_NAME":"TOMORROW-S4","OBJECT_ID":"2024-247K","EPOCH":"2026-03-09T12:47:35.836224","MEAN_MOTION":15.27717249,"ECCENTRICITY":0.00044343,"INCLINATION":44.9818,"RA_OF_ASC_NODE":117.9996,"ARG_OF_PERICENTER":210.4078,"MEAN_ANOMALY":149.6548,"EPHEMERIS_TYPE":0,"CLASSIFICATION_TYPE":"U","NORAD_CAT_ID":62386,"ELEMENT_SET_NO":999,"REV_AT_EPOCH":6770,"BSTAR":0.00046927249,"MEAN_MOTION_DOT":0.00012677,"MEAN_MOTION_DDOT":0}]
